STARLINK-2417           
1 48096U 21027E   26068.53769810 -.00001680  00000+0 -44631-4 0  9998
2 48096  53.1603 166.3022 0001184  76.2156 283.8977 15.30191527272489
NUSHSAT1                
1 63211U 25052B   26068.64700493  .00023034  00000+0  74857-3 0  9997
2 63211  97.4095 325.7239 0005501  84.7512 275.4357 15.31903202 54882
